INTELSAT 602 (IS-602)   
1 20315U 89087A   08235.57807964 -.00000107  00000-0  10000-3 0  7392
2 20315   6.1700  69.9273 0001471  72.4419 196.4594  1.00325106 66720
INTELSAT 603 (IS-603)   
1 20523U 90021A   08238.08788502 -.00000167  00000-0  10000-3 0  3356
2 20523   5.6493  71.4810 0002566 145.5720 128.3427  1.00272000 60505
SBS-6                   
1 20872U 90091A   08237.19298473 -.00000232  00000-0  00000+0 0  9291
2 20872   1.0448  83.0924 0002125  47.4713 190.8402  1.00270275 53815
INTELSAT 605 (IS-605)   
1 21653U 91055A   08235.56268034  .00000008  00000-0  10000-3 0  6594
2 21653   3.6781  76.3521 0001292  59.4841 211.9745  1.00273732 62319
INTELSAT 601 (IS-601)   
1 21765U 91075A   08233.02716736  .00000128  00000-0  10000-3 0  6252
2 21765   3.7243  76.1152 0000400 172.1163 137.7868  1.00274598 61394
INTELSAT 701 (IS-701)   
1 22871U 93066A   08235.57898137  .00000053  00000-0  10000-3 0  2524
2 22871   0.0210 118.7653 0002929  31.0513 209.8711  1.00273000 54203
INTELSAT 702 (IS-702)   
1 23124U 94034A   08235.80749443  .00000085  00000-0  10000-3 0   762
2 23124   0.0109  96.8997 0002491  41.6674 178.4608  1.00273421 66125
INTELSAT 2 (IS-2)       
1 23175U 94040A   08237.25240328 -.00000036  00000-0  10000-3 0  2707
2 23175   0.0226 248.7576 0003486 269.8517  74.1446  1.00272292 51050
INTELSAT 704 (IS-704)   
1 23461U 95001A   08236.60726263 -.00000005  00000-0  10000-3 0  7866
2 23461   0.0202 215.9107 0004379 277.4874 123.4720  1.00271289 49911
INTELSAT 705 (IS-705)   
1 23528U 95013A   08231.87587244 -.00000280  00000-0  10000-3 0  7596
2 23528   0.0284  78.8583 0003528  91.1096  62.9299  1.00270322 49040
INTELSAT 706 (IS-706)   
1 23571U 95023A   08237.92649979  .00000104  00000-0  10000-3 0  7900
2 23571   0.0123 246.8154 0003173 279.4285 191.0928  1.00272674 48592
INTELSAT 3R (IS-3R)     
1 23764U 96002A   08232.88643832 -.00000266  00000-0  10000-3 0  5463
2 23764   0.0138 133.2314 0002284  13.6182  97.8553  1.00270914 46168
HGS-3                   
1 23779U 96006A   08237.02284810  .00000149  00000-0  10000-3 0   612
2 23779   0.0297 240.1035 0002628 255.6965 243.0615  1.00273630 45955
INTELSAT 707 (IS-707)   
1 23816U 96015A   08236.32200981 -.00000287  00000-0  10000-3 0  7502
2 23816   0.0273  78.6598 0003291  82.0726 234.1719  1.00270705 45599
GALAXY 9 (G-9)          
1 23877U 96033A   08235.26420780 -.00000224  00000-0  10000-3 0  9493
2 23877   0.0173  64.7284 0001238  80.8037 199.5034  1.00269954 44860
INTELSAT 709 (IS-709)   
1 23915U 96035A   08237.67873116 -.00000193  00000-0  10000-3 0  7987
2 23915   0.0215 275.8639 0003314 250.0814 136.8470  1.00270645 44687
INTELSAT 801 (IS-801)   
1 24742U 97009A   08238.04845616 -.00000233  00000-0  10000-3 0  5145
2 24742   0.0424 234.8551 0003138 249.2080 195.5953  1.00271267 42109
GALAXY 25 (G-25)        
1 24812U 97026A   08237.35302604 -.00000146  00000-0  10000-3 0  8089
2 24812   0.0231 118.3093 0003155  19.3875 225.3948  1.00271915 41236
INTELSAT 802 (IS-802)   
1 24846U 97031A   08236.67650782  .00000152  00000-0  10000-3 0  6881
2 24846   0.0230   7.8639 0002809 244.2545 356.6845  1.00276887 40931
INTELSAT 5 (IS-5)       
1 24916U 97046A   08232.84502465  .00000148  00000-0  00000+0 0  6143
2 24916   0.0182 120.3211 0001824 358.8814 179.7174  1.00274564 40343
INTELSAT 805 (IS-805)   
1 25371U 98037A   08237.37296263 -.00000292  00000-0  10000-3 0  2545
2 25371   0.0570 270.8089 0003271 243.8718 257.0998  1.00271154 37339
INTELSAT 7 (IS-7)       
1 25473U 98052A   08235.69332856 -.00000027  00000-0  10000-3 0  6323
2 25473   0.0123 146.0684 0002950   1.2769 142.2646  1.00273174 36390
INTELSAT 8 (IS-8)       
1 25522U 98065A   08232.59965409 -.00000054  00000-0  10000-3 0  5244
2 25522   0.0537 286.5333 0002877 215.8688 207.7957  1.00273135 35934
GALAXY 26 (G-26)        
1 25626U 99005A   08237.19804811 -.00000169  00000-0  10000-3 0  3632
2 25626   0.0173 102.4822 0002492  48.0026 160.6586  1.00271621 34896
INSAT-2E (APR-1)        
1 25666U 99016A   08235.77209910 -.00000165  00000-0  10000-3 0  9978
2 25666   0.0350 285.3895 0002664 232.6584 174.3350  1.00270099 34506
GALAXY 27 (G-27)        
1 25922U 99052A   08237.27907156  .00000053  00000-0  10000-3 0  3897
2 25922   0.0135 105.0101 0002125  51.1660 148.1938  1.00272342 32648
GALAXY 11 (G-11)        
1 26038U 99071A   08236.48690637 -.00000178  00000-0  10000-3 0  5657
2 26038   0.0548 284.2525 0000089 203.2848 288.9612  1.00273143 31865
GALAXY 4R (G-4R)        
1 26298U 00020A   08237.12396118 -.00000249  00000-0  10000-3 0  5266
2 26298   1.9346  80.3893 0002325  74.5115 145.6259  1.00270620 30696
INTELSAT 9 (IS-9)       
1 26451U 00043A   08232.13222039 -.00000283  00000-0  10000-3 0   957
2 26451   0.0508 263.9730 0002059 125.9985 287.4867  1.00270933 29556
INTELSAT 12 (IS-12)     
1 26590U 00068A   08233.84608524  .00000139  00000-0  10000-3 0  1493
2 26590   0.0251 247.0051 0002451 273.6512 158.4813  1.00274477 28630
INTELSAT 1R (IS-1R)     
1 26608U 00072A   08233.99840046 -.00000271  00000-0  10000-3 0  9600
2 26608   0.0286 287.1186 0000419 291.1755  65.7692  1.00270018 28483
INTELSAT 10 (IS-10)     
1 26766U 01019A   08236.79723432 -.00000029  00000-0  10000-3 0  2184
2 26766   0.0033 155.5742 0000618 299.2394 233.1153  1.00272194 26683
INTELSAT 901 (IS-901)   
1 26824U 01024A   08233.99385250 -.00000138  00000-0  00000+0 0  3026
2 26824   0.0187 114.9817 0003897  35.4175 159.0702  1.00271944 26407
INTELSAT 902 (IS-902)   
1 26900U 01039A   08237.74959615  .00000024  00000-0  10000-3 0  2607
2 26900   0.0302  28.3016 0003018 115.0387 161.9002  1.00273292 25610
INTELSAT 904 (IS-904)   
1 27380U 02007A   08236.58983321  .00000045  00000-0  10000-3 0  2713
2 27380   0.0128  62.7023 0003017  94.2249  87.6544  1.00272858 23859
INTELSAT 903 (IS-903)   
1 27403U 02016A   08237.02377336 -.00000243  00000-0  10000-3 0  1217
2 27403   0.0037 170.2618 0000372 342.3550 154.1294  1.00270359 23511
INTELSAT 905 (IS-905)   
1 27438U 02027A   08238.12653003 -.00000194  00000-0  10000-3 0  9962
2 27438   0.0429 280.6611 0002707 215.2715 218.8806  1.00271109 22844
GALAXY 3C (G-3C)        
1 27445U 02030A   08233.23855854 -.00000148  00000-0  10000-3 0  9249
2 27445   0.0039 222.9372 0000542 202.6241 254.1918  1.00270815 22672
INTELSAT 906 (IS-906)   
1 27513U 02041A   08234.65691425  .00000016  00000-0  10000-3 0   565
2 27513   0.0237  47.6348 0002497  96.5959 126.7603  1.00273593 21861
INTELSAT 907 (IS-907)   
1 27683U 03007A   08232.87537322 -.00000200  00000-0  10000-3 0  6914
2 27683   0.0304  81.0257 0003006  64.0922 111.0980  1.00271129 20207
GALAXY 12 (G-12)        
1 27715U 03013B   08234.15368142  .00000027  00000-0  10000-3 0  9652
2 27715   0.0342 343.8032 0002680 165.9113 112.5282  1.00272485 19738
GALAXY 23 (G-23)        
1 27854U 03034A   08237.35184801  .00000007  00000-0  10000-3 0  8626
2 27854   0.0128  58.2277 0002832  97.2611 183.1585  1.00271980 18526
GALAXY 13 (HORIZONS-1)  
1 27954U 03044A   08236.41717854  .00000045  00000-0  10000-3 0  7883
2 27954   0.0252 104.3931 0001244 350.4043 260.4693  1.00273715 17991
INTELSAT 10-02          
1 28358U 04022A   08237.75348417 -.00000019  00000-0  00000+0 0  6181
2 28358   0.0164 163.2330 0000635 334.7938 105.6342  1.00271871 15394
GALAXY 28 (G-28)        
1 28702U 05022A   08235.33484411 -.00000187  00000-0  10000-3 0  5340
2 28702   0.0197 357.5536 0012136  58.6655 306.4257  1.00282608 11646
GALAXY 14 (G-14)        
1 28790U 05030A   08233.34554803  .00000039  00000-0  10000-3 0  5703
2 28790   0.0163  13.1892 0002463 129.3474 185.9256  1.00273701 11039
GALAXY 15 (G-15)        
1 28884U 05041A   08234.18566137  .00000081  00000-0  10000-3 0  4880
2 28884   0.0260  73.2463 0002405  75.9506 114.5170  1.00273263 10473
GALAXY 16 (G-16)        
1 29236U 06023A   08237.21717936 -.00000133  00000-0  10000-3 0  3726
2 29236   0.0289 122.3296 0003125  20.3988 169.3095  1.00271369  8021
GALAXY 17 (G-17)        
1 31307U 07016B   08235.11348484 -.00000174  00000-0  10000-3 0  2607
2 31307   0.0437 278.8460 0001640 147.9025 213.9232  1.00271656  4817
INTELSAT 11 (IS-11)     
1 32253U 07044B   08232.88643832 -.00000266  00000-0  10000-3 0  1381
2 32253   0.0166 146.8664 0002094 350.6009 107.1322  1.00270211  3242
HORIZONS 2              
1 32388U 07063B   08235.29005959 -.00000252  00000-0  00000+0 0  1202
2 32388   0.0267 259.6521 0002522 241.2655 220.4037  1.00273243  2627
GALAXY 18 (G-18)        
1 32951U 08024A   08237.17887194  .00000019  00000-0  00000+0 0   663
2 32951   0.0074 202.2164 0003026 319.7923 112.1874  1.00272277   973
